APSTAR 6E SPS           
1 55447U 23005C   23038.84331060 -.00000071  00000+0 -15187-1 0  9998
2 55447  28.6616 319.6899 2303014 170.0849 195.4340  7.60508317   590
ELEKTRO-L 4             
1 55506U 23016A   23038.90043212 -.00000278  00000+0  00000+0 0  9996
2 55506   0.5601 284.9257 0014656 239.2963  39.6496  1.01519390    26
BLOCK DM-SL R/B         
1 55507U 23016B   23038.70927674 -.00000109  00000+0  00000+0 0  9991
2 55507   0.4330 276.0718 0097589  28.7738 201.2830  1.03229673    29
2023-017A               
1 55508U 23017A   23038.90000000 -.00000355  00000+0  00000+0 0  9993
2 55508  25.0490 351.4040 8148766 178.4120   9.2250  1.25627155    18
2023-017B               
1 55509U 23017B   23038.90000000 -.00000357  00000+0  00000+0 0  9996
2 55509  25.0620 351.4280 8154247 178.3910   7.7600  1.25132475    15
